{"type": "FeatureCollection", "_comment": "Generated by scripts/build_coast_guard_zones.py — do not hand-edit. Kinmen/Matsu bands are a uniform 4 km / 6 km approximation of the MND 公告 distance bands, clipped at the midline to the PRC coast; see COAST_GUARD_TRACKER_SCOPE.md §4.", "features": [{"type": "Feature", "properties": {"id": "kinmen_prohibited", "label_zh": "金門禁止水域", "group": "kinmen", "kind": "prohibited", "label_en": "Kinmen prohibited waters", "area_km2": 396}, "geometry": {"type": "Polygon", "coordinates": [[[118.1984688630159, 24.43517390357867], [118.20852313459817, 24.450620199906343], [118.23362496841953, 24.47599487974752], [118.27628477962296, 24.502623296931827], [118.33184018153555, 24.506337375581055], [118.40556931722162, 24.53980965410865], [118.44787392099074, 24.52624025289969], [118.4600204443496, 24.51592721627101], [118.49258867331581, 24.503683508231536], [118.49208991461035, 24.488409915889836], [118.51171329917094, 24.429294638569317], [118.48374137838229, 24.380979502661702], [118.45497746621565, 24.354523805668915], [118.39172050638534, 24.369956042613445], [118.3789199037439, 24.369445132341003], [118.36739367524451, 24.364318855426458], [118.31347059902751, 24.32628183070906], [118.28271687557636, 24.33496677918177], [118.22562934693335, 24.3411563740984], [118.21349475219571, 24.33917452714867], [118.2016749490929, 24.331694100736076], [118.15723328262611, 24.362325209496053], [118.13526781939102, 24.38274016944396], [118.14920364459182, 24.408078033445427], [118.1984688630159, 24.43517390357867]], [[118.249034, 24.452826], [118.233084, 24.450751], [118.228038, 24.446031], [118.208995, 24.411607], [118.22022499999999, 24.407538], [118.240164, 24.412828], [118.251231, 24.423367000000002], [118.257335, 24.423774], [118.26254300000001, 24.430976], [118.26270599999998, 24.441799], [118.249034, 24.452826]], [[118.38539300000001, 24.503817000000005], [118.381414, 24.473511], [118.354809, 24.470562], [118.31665700000002, 24.493349], [118.28207399999998, 24.477362000000003], [118.289561, 24.455634], [118.292735, 24.432073999999997], [118.292003, 24.424994], [118.27955199999998, 24.408433], [118.283946, 24.401272], [118.318218, 24.390544], [118.330994, 24.396482], [118.34576, 24.417579000000003], [118.372856, 24.433201], [118.40362400000001, 24.43601], [118.422901, 24.430304], [118.448785, 24.415513], [118.46335599999999, 24.431523000000002], [118.467355, 24.461828], [118.44959, 24.505528], [118.422597, 24.527968], [118.39421599999999, 24.522691], [118.38539300000001, 24.503817000000005]]]}}, {"type": "Feature", "properties": {"id": "kinmen_restricted", "label_zh": "金門限制水域", "group": "kinmen", "kind": "restricted", "label_en": "Kinmen restricted waters", "area_km2": 118}, "geometry": {"type": "Polygon", "coordinates": [[[118.51588075968883, 24.494935801584653], [118.53858658974919, 24.427458549409266], [118.50382189874335, 24.36741044676281], [118.46237354295688, 24.329288193601187], [118.3849720622773, 24.347526192144034], [118.31835467964838, 24.301191858800937], [118.27755612208787, 24.31285731627935], [118.22179443164673, 24.317826887661134], [118.2016749490929, 24.331694100736076], [118.21349475219571, 24.33917452714867], [118.22562934693335, 24.3411563740984], [118.28271687557636, 24.33496677918177], [118.31347059902751, 24.32628183070906], [118.36739367524451, 24.364318855426458], [118.38208188974082, 24.37002237581688], [118.45497746621565, 24.354523805668915], [118.48374137838229, 24.380979502661702], [118.51171329917094, 24.429294638569317], [118.49208991461035, 24.488409915889836], [118.49123510478793, 24.496866464620116], [118.49155697115116, 24.499691143058822], [118.49217951094924, 24.502473318377277], [118.49258867331581, 24.503683508231536], [118.46026549052512, 24.51582298412125], [118.51588075968883, 24.494935801584653]]]}}, {"type": "Feature", "properties": {"id": "matsu_prohibited", "label_zh": "馬祖禁止水域", "group": "matsu", "kind": "prohibited", "label_en": "Matsu prohibited waters", "area_km2": 388}, "geometry": {"type": "MultiPolygon", "coordinates": [[[[119.90709009008395, 25.94162745351797], [119.89226978158842, 25.962408467429242], [119.88919270005661, 25.97950759601221], [119.89733992549569, 25.9988221214417], [119.91571578573844, 26.010879041214523], [119.9447155694428, 26.016990404673834], [119.95624699361547, 26.01463572028909], [119.97781333825321, 26.003698491186753], [120.00126611223847, 26.003999592596266], [120.0176465486965, 25.995208953053684], [120.02765604335188, 25.980431413154445], [120.02880550587182, 25.958713655330484], [120.02243141782546, 25.941586805748656], [120.00648735466696, 25.92621531508236], [119.98139902726619, 25.91388941228764], [119.96617287130051, 25.91124089621375], [119.95100681091742, 25.914164499669088], [119.93262820184164, 25.92899816176454], [119.91922203724317, 25.932732418371934], [119.90709009008395, 25.94162745351797]], [[119.98585, 25.968126000000005], [119.985281, 25.964871], [119.975841, 25.966742], [119.966563, 25.947414], [119.989431, 25.961453000000002], [119.990082, 25.969306], [119.98585, 25.968126000000005]], [[119.941987, 25.980902], [119.92855900000002, 25.976671], [119.93734800000001, 25.964871], [119.95240299999999, 25.97606], [119.941987, 25.980902]]], [[[119.94203585414655, 26.246750957902712], [119.98442414219782, 26.268137998304827], [119.99972016831293, 26.26886163866398], [120.02093708744233, 26.264295768792724], [120.03376622997304, 26.255131576811067], [120.05014766909534, 26.235276258663816], [120.05364832077717, 26.221200761915597], [120.05223923311456, 26.198694170609627], [120.04624593196382, 26.18555332533504], [120.03518034275064, 26.17555010649861], [120.0207575535627, 26.170234942291238], [120.00325812251567, 26.17091090481357], [120.00327652998803, 26.15483134897734], [119.99985441881529, 26.144838222423402], [119.97742078308464, 26.120930215084197], [119.94293385750466, 26.10499787596377], [119.9179556826191, 26.103621062043857], [119.89489210524157, 26.11463027021673], [119.88417328661167, 26.124260058803674], [119.87519067544329, 26.14517391766452], [119.87490078312699, 26.159470903208092], [119.87898412678256, 26.175880573313442], [119.89116352697475, 26.194430825005853], [119.90671798278969, 26.203531580469747], [119.9260788157954, 26.205950833502314], [119.93121574565454, 26.23132668401496], [119.94203585414655, 26.246750957902712]], [[119.93686, 26.158108], [119.924571, 26.162502], [119.923595, 26.169867], [119.919607, 26.169338], [119.913748, 26.152981], [119.916677, 26.144802], [119.92628, 26.138983], [119.932628, 26.139919], [119.953461, 26.149685], [119.964285, 26.160549], [119.964041, 26.166938], [119.953624, 26.166856], [119.93686, 26.158108]], [[119.96509900000001, 26.200019], [119.971039, 26.192368999999996], [119.97567799999999, 26.209621], [119.981293, 26.215237], [119.989919, 26.215074], [119.998871, 26.219387], [120.01352, 26.205797], [120.014171, 26.220364], [120.00359099999999, 26.231798], [119.99407, 26.233059], [119.968761, 26.22012], [119.96509900000001, 26.200019]]], [[[120.45304056325007, 26.40786521972484], [120.47286857554128, 26.420847001412508], [120.48777390516513, 26.424788469062516], [120.50318629538937, 26.42316563298745], [120.52026006751946, 26.415226478189485], [120.53227803775103, 26.405718740826742], [120.54436563991297, 26.38926028208715], [120.54713941671439, 26.375172809737286], [120.54373120624638, 26.361202651295578], [120.53167743612927, 26.34720760830806], [120.50077898457108, 26.329428643418368], [120.48141708064544, 26.32873121168921], [120.45798113595677, 26.33834974381328], [120.44399757343908, 26.350099484564524], [120.43761097005533, 26.366468049032022], [120.44195060345334, 26.392957127484316], [120.45304056325007, 26.40786521972484]], [[120.481049, 26.375922], [120.476899, 26.370103], [120.489594, 26.364122], [120.496349, 26.374376000000005], [120.50766, 26.375922], [120.500987, 26.383653], [120.491059, 26.388739], [120.479096, 26.380683], [120.481049, 26.375922]]]]}}, {"type": "Feature", "properties": {"id": "matsu_restricted", "label_zh": "馬祖限制水域", "group": "matsu", "kind": "restricted", "label_en": "Matsu restricted waters", "area_km2": 298}, "geometry": {"type": "MultiPolygon", "coordinates": [[[[119.876635706292, 25.950560030049203], [119.8706503111516, 25.965265886822664], [119.8695095500849, 25.980925894018323], [119.87844568293417, 26.005598095460673], [119.89888274260757, 26.023631574351672], [119.93424639327324, 26.034698959919258], [119.95774980077967, 26.033207593605272], [119.98198025051745, 26.022997998780784], [120.00127175985735, 26.022591230452417], [120.01750567295647, 26.017402160113257], [120.03883666854826, 26.00012010894139], [120.0488990901703, 25.975716051277487], [120.04638824990862, 25.946560202891828], [120.03539528456196, 25.927228413394165], [120.013299301093, 25.908505585560025], [119.97761226682812, 25.894104170423354], [119.95436610416229, 25.894314577125623], [119.9379744272271, 25.899890518045826], [119.89594604543427, 25.926065871088802], [119.876635706292, 25.950560030049203]], [[119.90974669695618, 25.939000914059196], [119.93262820184164, 25.92899816176454], [119.95100681091742, 25.914164499669088], [119.96617287130051, 25.91124089621375], [119.98139902726619, 25.91388941228764], [120.00648735466696, 25.92621531508236], [120.02243141782546, 25.941586805748656], [120.02880550587182, 25.958713655330484], [120.02765604335188, 25.980431413154445], [120.0176465486965, 25.995208953053684], [120.00126611223847, 26.003999592596266], [119.97781333825321, 26.003698491186753], [119.95624699361547, 26.01463572028909], [119.9447155694428, 26.016990404673834], [119.91571578573844, 26.010879041214523], [119.89733992549569, 25.9988221214417], [119.88919270005661, 25.97950759601221], [119.89226978158842, 25.962408467429242], [119.90974669695618, 25.939000914059196]]], [[[119.98504827740692, 26.103782485741135], [119.9420403336466, 26.086346174213585], [119.91922425118443, 26.085107056833614], [119.90330179361392, 26.08897019542764], [119.87943180919963, 26.102609579380843], [119.86792142991752, 26.11398908820551], [119.8574674648016, 26.13606632904295], [119.8547099126703, 26.15736622500172], [119.85871722501655, 26.177449715153323], [119.86999207089866, 26.198977330243782], [119.8854062194222, 26.213640868511348], [119.90828490510644, 26.222538329464243], [119.91461587522824, 26.242120052946582], [119.92867328121982, 26.26006643685406], [119.9687366074833, 26.282107848492416], [119.9967932000876, 26.28726392580281], [120.02961013116347, 26.28054465318909], [120.05605302581948, 26.259415342096], [120.06541567987412, 26.247576845544206], [120.07192282555867, 26.232418162950946], [120.07278936346941, 26.203468494240525], [120.0681731919832, 26.18487782744905], [120.05908974785345, 26.17113246117514], [120.04095273900678, 26.157705179098908], [120.02280691929202, 26.152258934775244], [120.01168984065261, 26.1280152998756], [119.98504827740692, 26.103782485741135]], [[119.9392020696141, 26.244106490031573], [119.92926174565454, 26.225832684014957], [119.9260788157954, 26.205950833502314], [119.90671798278969, 26.203531580469747], [119.89116352697475, 26.194430825005853], [119.87898412678256, 26.175880573313442], [119.87438927511353, 26.15590448333448], [119.87622764320108, 26.141704552695302], [119.88646286364391, 26.121510714382193], [119.90764764006146, 26.107088383607742], [119.9215761674563, 26.10306570455574], [119.946852467042, 26.106172694159383], [119.97742078308464, 26.120930215084197], [119.99985441881529, 26.144838222423402], [120.00327652998803, 26.15483134897734], [120.00325812251567, 26.17091090481357], [120.0207575535627, 26.170234942291238], [120.03518034275064, 26.17555010649861], [120.04624593196382, 26.18555332533504], [120.05281624231294, 26.202237329493684], [120.05335776857284, 26.224822907983395], [120.05014766909534, 26.235276258663816], [120.03096648358563, 26.257868680215413], [120.0171704297458, 26.265766581805156], [119.98442414219782, 26.268137998304827], [119.9392020696141, 26.244106490031573]]], [[[120.44892128780845, 26.42733356754228], [120.46909559027252, 26.4391330026733], [120.49198139664561, 26.44299472407114], [120.51472482935205, 26.438481971852394], [120.53970067314076, 26.424721089337496], [120.55730889284234, 26.405513561434706], [120.56595114155466, 26.385554237161323], [120.56546572007828, 26.364086623949976], [120.55592863939908, 26.34447228391639], [120.522284080655, 26.318872126475295], [120.50066580076579, 26.31081609423396], [120.47165254986999, 26.312408849407106], [120.43902633669762, 26.328381982582503], [120.42215587977495, 26.34938210499316], [120.41792564215835, 26.375166694493533], [120.42163827113332, 26.39386399398236], [120.42853090181359, 26.408942588643466], [120.44892128780845, 26.42733356754228]], [[120.45018683791183, 26.405325139308356], [120.44079084742222, 26.389470329321583], [120.43818035067864, 26.362997500336633], [120.44626829961307, 26.34727291455323], [120.46441997860788, 26.33509377393785], [120.48528145228546, 26.328163511045275], [120.50447289529679, 26.330613360212332], [120.53467469201993, 26.349537360399495], [120.54373120624638, 26.361202651295578], [120.54713941671439, 26.375172809737286], [120.54273623565909, 26.392537315219148], [120.52679611542716, 26.411031726224998], [120.51033206751946, 26.420312478189487], [120.49556795177168, 26.42467726482894], [120.48010787079076, 26.42349491232707], [120.45018683791183, 26.405325139308356]]]]}}, {"type": "Feature", "properties": {"id": "median_line_east", "label_zh": "海峽中線以東12浬帶", "group": "median", "kind": "band", "label_en": "Median line — Taiwan side (12 nm band)", "area_km2": 11316}, "geometry": {"type": "Polygon", "coordinates": [[[121.55717411904958, 26.3774278752536], [120.13956835289669, 24.69222578667071], [117.98633202136857, 23.12582766009182], [117.85, 23.2833], [119.9833, 24.833300000000005], [121.38330000000002, 26.5], [121.55717411904958, 26.3774278752536]]]}}, {"type": "Feature", "properties": {"id": "contiguous_n", "label_zh": "臺灣24浬鄰接區（北）", "group": "contiguous", "kind": "sector", "label_en": "Taiwan 24 nm zone — north", "area_km2": 14332}, "geometry": {"type": "Polygon", "coordinates": [[[120.13227733754455, 24.49703148626635], [120.1422129438831, 24.512746022958282], [120.16465233284431, 24.563818532219486], [120.18363942989515, 24.59540264163793], [120.21948033845038, 24.645753254289886], [120.26090057250113, 24.690254001069036], [120.29820728084813, 24.766789374165093], [120.34493662254557, 24.840432847997732], [120.39954356845224, 24.898084655402734], [120.48842956552248, 24.968812247058295], [120.53218780085729, 25.06192310362224], [120.55058954146637, 25.092760786746542], [120.63497425676579, 25.215940537435646], [120.670927363348, 25.260708285910983], [120.72263913111652, 25.31431901836123], [120.77747237194454, 25.358310002425213], [120.84666491012489, 25.40184244138036], [120.88435017787447, 25.418865407214025], [120.93416899681641, 25.435644926623393], [120.99881353167709, 25.46740989021619], [121.1012300985958, 25.500248380697204], [121.14379961278321, 25.541084975731554], [121.19858705801107, 25.58389051902093], [121.26401819057277, 25.62097528282257], [121.34977316835072, 25.65716040926779], [121.40119422270782, 25.670863112723524], [121.49187191289046, 25.686998663413352], [121.5412461867012, 25.68939372909727], [121.59060113312681, 25.68668489934209], [121.67677843213309, 25.67527138408466], [121.72081664018752, 25.663993111593516], [121.76333450545357, 25.648577563113246], [121.8038702869102, 25.629192150414173], [121.85907376882693, 25.59445139771232], [121.89414786980761, 25.567969098794247], [121.93133444593947, 25.532239707028], [121.96096092866435, 25.512085850693122], [122.04089476657424, 25.492073206843024], [122.08479983109707, 25.47513902561781], [122.13873025319155, 25.44686438909072], [122.20495465867279, 25.400083620015675], [122.2341187093116, 25.37257352617212], [122.27488879076277, 25.322223287957666], [122.30908487033956, 25.293932739971943], [122.34080706340227, 25.26129736414661], [122.3739006718299, 25.220096578645602], [122.39570929437349, 25.185532540955105], [122.41366781565037, 25.149157183024307], [122.42759909681703, 25.111329303260767], [122.43736572282708, 25.072422027423023], [122.4431908474431, 25.022107752353598], [121.77965255158067, 24.414240035829845], [121.78004000000001, 24.432684999999996], [121.806814, 24.460639], [121.840017, 24.481350000000003], [121.82838, 24.510728], [121.830089, 24.519232], [121.852794, 24.530992], [121.855968, 24.550523], [121.850841, 24.572984], [121.840831, 24.590318], [121.857758, 24.597846], [121.88184700000001, 24.597805], [121.88184700000001, 24.60399], [121.85271199999998, 24.608873], [121.827973, 24.622789], [121.814952, 24.644355], [121.81422, 24.672309], [121.819591, 24.685980999999998], [121.82032300000002, 24.699652], [121.80779099999998, 24.753119], [121.806814, 24.778754000000003], [121.814626, 24.831732], [121.823497, 24.854926000000003], [121.834727, 24.871527], [121.905772, 24.950100000000003], [121.92676800000001, 24.96662], [122.005382, 25.001899], [121.997732, 25.010688], [121.96754, 25.021064], [121.95386800000001, 25.022366000000005], [121.927257, 25.018704], [121.9192, 25.02204], [121.90919, 25.036038000000005], [121.899913, 25.065985], [121.897227, 25.083889000000003], [121.905121, 25.106594], [121.89283299999998, 25.113674], [121.70386799999999, 25.156887], [121.676443, 25.179389], [121.67611700000002, 25.186916], [121.684418, 25.200507], [121.67611700000002, 25.202581999999996], [121.649669, 25.197089], [121.63599699999999, 25.222805], [121.59791100000001, 25.27143], [121.58082100000001, 25.283026000000003], [121.539724, 25.287421], [121.497813, 25.278754000000003], [121.461274, 25.261908], [121.43629, 25.241441], [121.41627, 25.203599], [121.399099, 25.192125], [121.395763, 25.182807], [121.4074, 25.176215000000003], [121.429454, 25.155992], [121.44320699999999, 25.13642], [121.43002400000002, 25.131578], [121.412283, 25.155463], [121.398936, 25.159491], [121.378754, 25.157945], [121.348318, 25.137112], [121.330251, 25.130683], [121.210948, 25.111151000000003], [121.176931, 25.100043000000003], [121.129405, 25.071112000000003], [121.05933699999999, 25.050238], [121.031993, 25.029242], [121.005544, 25.000678], [120.96387800000001, 24.940416000000003], [120.95533300000001, 24.919379000000003], [120.953624, 24.905015], [120.944021, 24.902045], [120.926036, 24.884711], [120.920584, 24.861395999999996], [120.90235400000002, 24.836819], [120.90918999999998, 24.816881], [120.87696399999999, 24.761908], [120.871349, 24.743231999999995], [120.85767700000001, 24.737006], [120.847504, 24.710842000000003], [120.823009, 24.685045], [120.826671, 24.666083], [120.799327, 24.670803000000003], [120.778087, 24.665717], [120.74464, 24.638821], [120.727875, 24.613918], [120.702159, 24.607001], [120.6963, 24.597723999999996], [120.69019600000001, 24.576117], [120.667735, 24.540024999999996], [120.659353, 24.520697], [120.656016, 24.49787], [120.648936, 24.483873], [120.570811, 24.404934], [120.558116, 24.385891], [120.547374, 24.351549], [120.51197400000001, 24.295559], [120.49317500000001, 24.230658], [120.480642, 24.221096], [120.477794, 24.209662], [120.46204883569808, 24.192817291608574], [120.13227733754455, 24.49703148626635]]]}}, {"type": "Feature", "properties": {"id": "contiguous_e", "label_zh": "臺灣24浬鄰接區（東）", "group": "contiguous", "kind": "sector", "label_en": "Taiwan 24 nm zone — east", "area_km2": 8377}, "geometry": {"type": "Polygon", "coordinates": [[[122.4431908474431, 25.022107752353598], [122.44092499472103, 24.953092004509397], [122.43349219503536, 24.913754190602827], [122.42183661198825, 24.87528581741231], [122.40607321364806, 24.838066328380513], [122.38635748665584, 24.802462848235677], [122.36288390253986, 24.768826561755244], [122.3358839994919, 24.73748924975764], [122.30508345673412, 24.708339535349662], [122.3184759184435, 24.643830537108812], [122.32063639009722, 24.60399], [122.31851843841531, 24.558357501413887], [122.31218502925745, 24.519290813749205], [122.30169730291044, 24.48098207172576], [122.27304243656336, 24.416500498937967], [122.25214198161991, 24.343358609124387], [122.23622347656065, 24.308606014617418], [122.20848419256365, 24.263836748630855], [122.2004378159032, 24.219517789524645], [122.18836759394429, 24.180422323811054], [122.17205112112197, 24.14264275333388], [122.12481404501621, 24.067711064423527], [122.06715913881148, 24.00302325911949], [122.06012639269407, 23.939388881961165], [122.03498047690762, 23.86001552399786], [122.01667727669268, 23.781969479011792], [121.99366622866837, 23.721657459772317], [121.96098209725865, 23.580069290784287], [121.94385598130962, 23.536903380200158], [121.88649381121613, 23.240644038443705], [121.86076992544325, 23.174946553602123], [121.84017333661312, 23.13694167321506], [121.83105488362726, 23.069987478189557], [121.82217005288672, 23.03566605409843], [121.79544140819644, 22.971295785874194], [121.43420606077125, 23.30222364209027], [121.45362399999999, 23.325995], [121.46216899999999, 23.343004], [121.52149499999999, 23.658677], [121.539806, 23.692816], [121.57032299999999, 23.832098999999996], [121.594493, 23.891505999999996], [121.611095, 23.982489], [121.62501100000001, 24.002387], [121.629161, 24.01496], [121.628917, 24.026190000000003], [121.615001, 24.042304], [121.608165, 24.060492], [121.607432, 24.07685], [121.613048, 24.092108], [121.641287, 24.129868999999996], [121.652192, 24.172187], [121.662852, 24.193101], [121.697765, 24.21898], [121.700938, 24.224189], [121.698253, 24.231512999999996], [121.70386799999999, 24.238348999999996], [121.721446, 24.251166], [121.745291, 24.281235999999996], [121.76742600000001, 24.30093], [121.772716, 24.309231], [121.758556, 24.332343], [121.766449, 24.347357], [121.77149500000002, 24.380561], [121.780772, 24.39761], [121.77965255158067, 24.414240035829845], [122.4431908474431, 25.022107752353598]]]}}, {"type": "Feature", "properties": {"id": "contiguous_s", "label_zh": "臺灣24浬鄰接區（南）", "group": "contiguous", "kind": "sector", "label_en": "Taiwan 24 nm zone — south", "area_km2": 15499}, "geometry": {"type": "Polygon", "coordinates": [[[121.79474335738384, 22.96981802384159], [121.75373111871714, 22.897670048827525], [121.72637839092661, 22.862094066772055], [121.69835456781081, 22.791480584585962], [121.68099661167273, 22.7604612128715], [121.6307107213827, 22.6891763479745], [121.59240300233412, 22.640944057587195], [121.55289862764604, 22.570632455885857], [121.50497275810055, 22.509815433686907], [121.46282830006545, 22.46714160741271], [121.41658282950046, 22.42863011829069], [121.3865615177471, 22.408377409052505], [121.36106198397972, 22.366943517639246], [121.32777565328425, 22.269874661458125], [121.31469675382975, 22.245390040803095], [121.31797243342325, 22.062402281195197], [121.31602821925925, 22.017446789265414], [121.30861236914227, 21.972971912173687], [121.2920574031422, 21.909899283625162], [121.27741827702968, 21.8733609593277], [121.26589542692166, 21.806618390143036], [121.25362721238038, 21.76955761758976], [121.23752291618709, 21.73375037536388], [121.217732017546, 21.699529024346354], [121.16785771888169, 21.637096890355114], [121.13823724939459, 21.609465599064173], [121.0710017961324, 21.562652548069366], [120.99522236540794, 21.528506083926608], [120.91370595075048, 21.50829104727907], [120.82947205291748, 21.50275623600661], [120.78731031956096, 21.5055795721533], [120.74564083266895, 21.512106668532827], [120.70485036615958, 21.52227694099048], [120.66326599332537, 21.536923608655552], [120.56790592926784, 21.558564031626563], [120.53069547159116, 21.572421110840626], [120.4611908555858, 21.609171052127817], [120.3845705384046, 21.669348262487635], [120.35661386974556, 21.698605955693786], [120.31058157765666, 21.763838572557365], [120.29293667844362, 21.799203114534137], [120.2791041239922, 21.8359639913859], [120.24985014111395, 21.95107130266254], [120.24404875836787, 21.992978868924887], [120.24457060990278, 22.07184790786052], [120.23184901740166, 22.102413750928708], [120.22488609218179, 22.1082792849841], [120.18252402571896, 22.125310071649118], [120.14471638549728, 22.145079790127348], [120.10923319760323, 22.16818423912383], [120.0272820715423, 22.229803073240465], [119.99787012524398, 22.25833737372259], [119.92557471020373, 22.349706154699824], [119.8617282890102, 22.44810085371216], [119.84463573036915, 22.479622368487664], [119.82443356301728, 22.528952779347126], [119.80498884560978, 22.603703561022865], [120.16670050407927, 22.936613975524416], [120.175548, 22.884101], [120.191417, 22.852037], [120.203461, 22.839667], [120.19646200000001, 22.81859], [120.199962, 22.792467], [120.21753999999999, 22.756741000000005], [120.246349, 22.709906], [120.252126, 22.689643], [120.239594, 22.659083999999996], [120.245779, 22.642524], [120.313487, 22.577053000000003], [120.327973, 22.551703], [120.333669, 22.525946], [120.28516700000002, 22.580064], [120.331228, 22.519721], [120.38086999999999, 22.483873], [120.40211000000001, 22.486802], [120.413259, 22.482327000000005], [120.457205, 22.451605999999998], [120.51197400000001, 22.42475], [120.518077, 22.406968], [120.538748, 22.39643], [120.56967199999998, 22.373847], [120.593923, 22.329169], [120.621267, 22.295071], [120.696951, 22.113227], [120.694835, 22.102606999999995], [120.685557, 22.090155], [120.68336, 22.079047], [120.68165100000002, 22.022528], [120.68336, 22.013861], [120.704356, 21.981391], [120.700369, 21.948432], [120.714366, 21.937485999999996], [120.727306, 21.934475000000003], [120.736095, 21.942816], [120.73731499999998, 21.966132], [120.767426, 21.959296], [120.797374, 21.946763], [120.82309, 21.928616000000005], [120.84034300000002, 21.904608], [120.841563, 21.925482], [120.836192, 21.957709], [120.835704, 21.98725], [120.863617, 22.008938], [120.873302, 22.029975], [120.879242, 22.055813], [120.875011, 22.289252], [120.881358, 22.345933], [120.886567, 22.365953], [120.922862, 22.42475], [120.941091, 22.483629], [120.948253, 22.526801000000003], [120.960623, 22.547797], [120.99122200000001, 22.583075], [121.02100700000001, 22.647895], [121.08025100000002, 22.704088000000002], [121.141449, 22.741767], [121.159353, 22.757473], [121.177419, 22.778632], [121.19027800000002, 22.802151], [121.19027800000002, 22.843166], [121.20281, 22.856512999999996], [121.255626, 22.897773], [121.299571, 22.959174], [121.318858, 23.025539], [121.33708700000001, 23.05508], [121.34742299999999, 23.083319], [121.38160200000002, 23.110663], [121.400076, 23.145493999999996], [121.403819, 23.179267], [121.403331, 23.214747999999997], [121.40886499999999, 23.254584], [121.416759, 23.276068], [121.43420606077125, 23.30222364209027], [121.79474335738384, 22.96981802384159]], [[121.455414, 22.673814], [121.471446, 22.641791], [121.48316500000001, 22.636135], [121.49610399999999, 22.634669999999996], [121.494965, 22.644192], [121.502778, 22.669501], [121.50001100000001, 22.676256], [121.495779, 22.678534], [121.455414, 22.673814]]]}}, {"type": "Feature", "properties": {"id": "contiguous_w", "label_zh": "臺灣24浬鄰接區（西）", "group": "contiguous", "kind": "sector", "label_en": "Taiwan 24 nm zone — west", "area_km2": 8531}, "geometry": {"type": "Polygon", "coordinates": [[[119.6217193152576, 23.17935299320094], [119.62946976952612, 23.232560286216245], [119.63879203626573, 23.271120847157622], [119.68153044672923, 23.386388815756785], [119.69222166420094, 23.42631073687806], [119.68635669357305, 23.480325499162173], [119.68656989899941, 23.54843124588193], [119.69140135147236, 23.585877011221413], [119.70378057529193, 23.633611006171183], [119.71099726407029, 23.70525064982384], [119.73221059487902, 23.782280429653234], [119.78019494450514, 23.92077199303201], [119.81866861688069, 23.99009606061329], [119.86067032194238, 24.048622524396244], [119.89431886383927, 24.103989975482087], [119.91666437486023, 24.130985546370628], [119.94203881328242, 24.19092564767349], [119.97030703246287, 24.238992584972035], [120.01192380987341, 24.29367413284914], [120.03976059250363, 24.34948505198209], [120.06306177966798, 24.383316806480142], [120.09470164747407, 24.419451667102987], [120.1118158884564, 24.46048154170933], [120.13149640321643, 24.495636516326915], [120.46204883569808, 24.192817291608574], [120.422048, 24.152167], [120.41863, 24.142524], [120.41635200000002, 24.107489], [120.411876, 24.09691], [120.392345, 24.082913000000005], [120.385509, 24.063056], [120.361827, 24.048529], [120.350352, 24.038071999999996], [120.340099, 24.021796], [120.318126, 23.965806], [120.302501, 23.93887], [120.292247, 23.911933], [120.25749800000001, 23.878404], [120.24073299999999, 23.832831], [120.21949300000001, 23.817939], [120.212657, 23.803168000000003], [120.18922, 23.774807], [120.175548, 23.733831999999996], [120.170805, 23.698902], [120.15423, 23.672212], [120.143609, 23.638035999999996], [120.141689, 23.537947000000003], [120.124262, 23.520021], [120.125029, 23.489611], [120.157544, 23.491476], [120.1421, 23.473090000000003], [120.13054400000001, 23.450995], [120.1421, 23.445787], [120.1421, 23.438951], [120.13477599999999, 23.426256], [120.150645, 23.398139], [120.164577, 23.361711], [120.130149, 23.36096], [120.120779, 23.341254000000003], [120.120942, 23.329739], [120.137341, 23.327734], [120.145763, 23.333319], [120.148936, 23.322252000000002], [120.14356499999998, 23.323879], [120.13118, 23.31881], [120.11652699999999, 23.317897], [120.110494, 23.303699], [120.124685, 23.294989], [120.114919, 23.292711], [120.108897, 23.286689], [120.096039, 23.255357], [120.096098, 23.239491], [120.08744399999999, 23.230288], [120.078624, 23.206977], [120.086925, 23.182034], [120.08187899999999, 23.173163], [120.062022, 23.165024999999996], [120.059418, 23.151028], [120.086274, 23.126939], [120.089203, 23.117743], [120.059418, 23.117499], [120.059418, 23.110663], [120.094981, 23.102484], [120.10043400000002, 23.096991], [120.09644600000001, 23.086412], [120.070567, 23.081204], [120.059418, 23.075873], [120.05241899999999, 23.055813], [120.055186, 23.043687], [120.066254, 23.034898], [120.076671, 23.037421], [120.092459, 23.054755], [120.107921, 23.04857], [120.111013, 23.039984], [120.109141, 23.015448], [120.114106, 23.007636], [120.12672, 23.007148], [120.1421, 23.034898], [120.166189, 23.031724], [120.170258, 23.013373], [120.16016699999999, 22.992133], [120.1421, 22.980292], [120.156912, 22.966539], [120.163829, 22.953843], [120.16670050407927, 22.936613975524416], [119.80484864340772, 22.605121331259785], [119.80334246287524, 22.620352318354474], [119.78381139460566, 22.665017699044558], [119.77191968181559, 22.70404597238701], [119.7632913356469, 22.743855579322986], [119.71145782827448, 22.793829827798778], [119.68763052057831, 22.824130199683186], [119.66697547384445, 22.856325500376027], [119.63586631588038, 22.925275459933694], [119.62291369845016, 22.973561032403946], [119.61613169777964, 23.012946559408622], [119.61364231669862, 23.052753848224107], [119.61547004816379, 23.092591235955542], [119.62130512737467, 23.130186805723493], [119.6217193152576, 23.17935299320094]], [[120.074932, 23.500818], [120.021861, 23.451643999999998], [120.007656, 23.432594], [120.047912, 23.458085], [120.090301, 23.499396], [120.12477, 23.550454], [120.115251, 23.547912], [120.074932, 23.500818]]]}}, {"type": "Feature", "properties": {"id": "pratas_24nm", "label_zh": "東沙24浬", "group": "pratas", "kind": "radius", "label_en": "Pratas 24 nm", "area_km2": 6185}, "geometry": {"type": "Polygon", "coordinates": [[[117.15878939009723, 20.7], [117.15667649925057, 20.660599545522743], [117.15035817500446, 20.62157853896058], [117.13989526627537, 20.583312773937756], [117.12538853659393, 20.546170770689642], [117.10697769369719, 20.51051022701139], [117.0848400440666, 20.476674573432675], [117.05918878536981, 20.444989665793898], [117.03027095325045, 20.415760647076347], [116.99836504223994, 20.389269008708492], [116.96377832370285, 20.365769879649612], [116.88791742988779, 20.328623388309534], [116.80560356341134, 20.30574869188631], [116.72, 20.29802485213522], [116.63439643658867, 20.30574869188631], [116.55208257011222, 20.328623388309534], [116.47622167629716, 20.365769879649612], [116.44163495776006, 20.389269008708492], [116.40972904674955, 20.415760647076347], [116.3808112146302, 20.444989665793898], [116.3551599559334, 20.476674573432675], [116.33302230630282, 20.51051022701139], [116.31461146340608, 20.546170770689642], [116.30010473372464, 20.583312773937756], [116.28964182499554, 20.62157853896058], [116.28332350074945, 20.660599545522743], [116.28121060990279, 20.7], [116.28332350074945, 20.739400454477256], [116.28964182499554, 20.778421461039418], [116.30010473372464, 20.81668722606224], [116.31461146340608, 20.853829229310357], [116.33302230630282, 20.889489772988604], [116.3551599559334, 20.92332542656732], [116.3808112146302, 20.9550103342061], [116.40972904674955, 20.984239352923648], [116.44163495776006, 21.010730991291506], [116.47622167629716, 21.034230120350387], [116.55208257011222, 21.071376611690464], [116.63439643658867, 21.094251308113684], [116.72, 21.101975147864778], [116.80560356341134, 21.094251308113684], [116.88791742988779, 21.071376611690464], [116.96377832370285, 21.034230120350387], [116.99836504223994, 21.010730991291506], [117.03027095325045, 20.984239352923648], [117.05918878536981, 20.9550103342061], [117.0848400440666, 20.92332542656732], [117.10697769369719, 20.889489772988604], [117.12538853659393, 20.853829229310357], [117.13989526627537, 20.81668722606224], [117.15035817500446, 20.778421461039418], [117.15667649925057, 20.739400454477256], [117.15878939009723, 20.7]]]}}, {"type": "Feature", "properties": {"id": "east_coast_box", "label_zh": "臺灣東部海域觀察框", "group": "east", "kind": "box", "label_en": "East-coast box", "area_km2": 114490}, "geometry": {"type": "Polygon", "coordinates": [[[121.8, 25.6], [124.5, 25.6], [124.5, 21.8], [121.8, 21.8], [121.8, 24.45352468925076], [121.840017, 24.48135], [121.82838, 24.510728], [121.830089, 24.519232], [121.852794, 24.530992], [121.855968, 24.550523], [121.850841, 24.572984], [121.840831, 24.590318], [121.857758, 24.597846], [121.881847, 24.597805], [121.881847, 24.60399], [121.852712, 24.608873], [121.827973, 24.622789], [121.814952, 24.644355], [121.81422, 24.672309], [121.819591, 24.685981], [121.820323, 24.699652], [121.807791, 24.753119], [121.806814, 24.778754], [121.814626, 24.831732], [121.823497, 24.854926], [121.834727, 24.871527], [121.905772, 24.9501], [121.926768, 24.96662], [122.005382, 25.001899], [121.997732, 25.010688], [121.96754, 25.021064], [121.953868, 25.022366], [121.927257, 25.018704], [121.9192, 25.02204], [121.90919, 25.036038], [121.899913, 25.065985], [121.897227, 25.083889], [121.905121, 25.106594], [121.892833, 25.113674], [121.8, 25.134086747408457], [121.8, 25.6]]]}}]}